              M50 Cartesian                         M50 Keplerian  
    -----------------------------------       --------------------------------
     X    =        4159381.69                 A    =         6780444.25  meter
     Y    =        2963465.49  meter          E    =           .0009597
     Z    =        4453075.93                 I    =           51.58353
     XDOT =      -5997.808580                 Wp   =          102.43773
     YDOT =       3493.127439  meter/sec      RA   =          351.72034  deg
     ZDOT =       3269.626455                 TA   =          314.57367
                                              MA   =          314.65197
                                              Ha   =            221.094  n.mi
                                              Hp   =            214.102
 
              M50 Cartesian                         J2K Cartesian  
    -----------------------------------       --------------------------------
     X    =       13646265.40                 X    =         4104303.02
     Y    =        9722655.82  feet           Y    =         3009670.95  meter
     Z    =       14609829.17                 Z    =         4473147.28
     XDOT =     -19677.849672                 XDOT =       -6052.306420
     YDOT =      11460.391859  feet/sec       YDOT =        3425.751562  meter/sec
     ZDOT =      10727.120914                 ZDOT =        3240.357612
 
              TDR Cartesian                         TDR Cartesian  
    -----------------------------------       --------------------------------
     X    =       -7386398.89                 X    =        -2251374.38
     Y    =       14955057.23  feet           Y    =         4558301.44  meter
     Z    =       14696430.82                 Z    =         4479472.11
     XDOT =     -13434.498391                 XDOT =       -4094.835110
     YDOT =     -17076.933843  feet/sec       YDOT =       -5205.049435  meter/sec
     ZDOT =      10599.284367                 ZDOT =        3230.661875
  
  
    The mean element set is posted at the UTC for which position is
    just north of the next ascending node relative to the above
    vector time
 
 
    TWO LINE MEAN ELEMENT SET
  
    ISS
    1 25544U 98067A   16110.25543234  .00016717  00000-0  10270-3 0  9149
    2 25544  51.6408 351.9872 0001511  39.2947 320.8315 15.54253076 35810
  
  
    Satellite: ISS
    Catalog Number: 25544
    Epoch time:      16110.25543234   =   yrday.fracday
    Element set:     914
    Inclination:       51.6408  deg
    RA of node:       351.9872  deg
    Eccentricity:     .0001511     
    Arg of perigee:    39.2947  deg
    Mean anomaly:     320.8315  deg
    Mean motion:   15.54253076  rev/day
    Decay rate:    1.67170E-04  rev/day^2
    Epoch rev:            3581
    Checksum:              293
 
 
    Coasting Arc #16 (Orbit 3595)
    ---------------------------------------
 
    Vector Time (GMT): 2016/111/04:50:00.000
    Vector Time (MET): N/A
    Weight (LBS)     : 943981.9
 
              M50 Cartesian                         M50 Keplerian  
    -----------------------------------       --------------------------------
     X    =       -2527402.31                 A    =         6777651.46  meter
     Y    =       -3614328.83  meter          E    =           .0015218
     Z    =       -5159973.95                 I    =           51.54181
     XDOT =       6971.880782                 Wp   =           75.45759
     YDOT =      -2820.228095  meter/sec      RA   =          346.71872  deg
     ZDOT =      -1439.273441                 TA   =          180.65268
                                              MA   =          180.65467
                                              Ha   =            221.260  n.mi
                                              Hp   =            213.961
 
              M50 Cartesian                         J2K Cartesian  
    -----------------------------------       --------------------------------
     X    =       -8292002.32                 X    =        -2461732.88
     Y    =      -11858034.23  feet           Y    =        -3642225.24  meter
     Z    =      -16929048.39                 Z    =        -5172091.75
     XDOT =      22873.624612                 XDOT =        7009.890570
     YDOT =      -9252.716848  feet/sec       YDOT =       -2742.051495  meter/sec
     ZDOT =      -4722.025724                 ZDOT =       -1405.312768
 
              TDR Cartesian                         TDR Cartesian  
    -----------------------------------       --------------------------------
     X    =       10194461.69                 X    =         3107271.92
     Y    =      -10182469.12  feet           Y    =        -3103616.59  meter
     Z    =      -16980966.73                 Z    =        -5175798.66
     XDOT =      12478.981106                 XDOT =        3803.593441
     YDOT =      20122.463578  feet/sec       YDOT =        6133.326899  meter/sec
     ZDOT =      -4573.953723                 ZDOT =       -1394.141095
  
  
    The mean element set is posted at the UTC for which position is
    just north of the next ascending node relative to the above
    vector time
 
 
    TWO LINE MEAN ELEMENT SET
  
    ISS
    1 25544U 98067A   16111.21988626  .00016717  00000-0  10270-3 0  9155
    2 25544  51.6402 347.1787 0001612  44.7782 315.3501 15.54249004 35964
  
  
    Satellite: ISS
    Catalog Number: 25544
    Epoch time:      16111.21988626   =   yrday.fracday
    Element set:     915
    Inclination:       51.6402  deg
    RA of node:       347.1787  deg
    Eccentricity:     .0001612     
    Arg of perigee:    44.7782  deg
    Mean anomaly:     315.3501  deg
    Mean motion:   15.54249004  rev/day
    Decay rate:    1.67170E-04  rev/day^2
    Epoch rev:            3596
    Checksum:              303
 
 
    Coasting Arc #17 (Orbit 3611)
    ---------------------------------------
 
    Vector Time (GMT): 2016/112/04:50:00.000
    Vector Time (MET): N/A
    Weight (LBS)     : 943981.9
 
              M50 Cartesian                         M50 Keplerian  
    -----------------------------------       --------------------------------
     X    =         733916.41                 A    =         6777065.64  meter
     Y    =        4180001.96  meter          E    =           .0004334
     Z    =        5280700.56                 I    =           51.50868
     XDOT =      -7389.975740                 Wp   =           58.15219
     YDOT =       1987.380869  meter/sec      RA   =          341.71006  deg
     ZDOT =       -543.500391                 TA   =           37.05581
                                              MA   =           37.02589
                                              Ha   =            221.189  n.mi
                                              Hp   =            214.054
 
              M50 Cartesian                         J2K Cartesian  
    -----------------------------------       --------------------------------
     X    =        2407862.24                 X    =          661468.26
     Y    =       13713917.19  feet           Y    =         4187804.46  meter
     Z    =       17325133.06                 Z    =         5284089.48
     XDOT =     -24245.327231                 XDOT =       -7409.009754
     YDOT =       6520.278442  feet/sec       YDOT =        1904.634772  meter/sec
     ZDOT =      -1783.137767                 ZDOT =        -579.446014
 
              TDR Cartesian                         TDR Cartesian  
    -----------------------------------       --------------------------------
     X    =      -12995606.03                 X    =        -3961060.72
     Y    =        4949955.82  feet           Y    =         1508746.53  meter
     Z    =       17339023.10                 Z    =         5284934.24
     XDOT =     -10799.537277                 XDOT =       -3291.698962
     YDOT =     -21529.236332  feet/sec       YDOT =       -6562.111234  meter/sec
     ZDOT =      -1939.654337                 ZDOT =        -591.206642
  
  
    The mean element set is posted at the UTC for which position is
    just north of the next ascending node relative to the above
    vector time
 
 
    TWO LINE MEAN ELEMENT SET
  
    ISS
    1 25544U 98067A   16112.24862834  .00016717  00000-0  10270-3 0  9162
    2 25544  51.6399 342.0497 0001520  44.6353 315.4922 15.54264244 36122
  
  
    Satellite: ISS
    Catalog Number: 25544
    Epoch time:      16112.24862834   =   yrday.fracday
    Element set:     916
    Inclination:       51.6399  deg
    RA of node:       342.0497  deg
    Eccentricity:     .0001520     
    Arg of perigee:    44.6353  deg
    Mean anomaly:     315.4922  deg
    Mean motion:   15.54264244  rev/day
    Decay rate:    1.67170E-04  rev/day^2
    Epoch rev:            3612
    Checksum:              298
 
             </PRE>
           </TD>
        </TR>
    </TABLE>
    
    <table align="center" border="0" width="600" cellpadding="0" cellspacing="0">
      <tr>
        <td align="center" valign="top"><hr size="1" width="600" noshade="noshade" />
        <font face="Arial,helvetica" size="-2">Curator: <a href="/cgi-bin/comment.cgi?jsc-hsfwebma@mail.nasa.gov">Kim 
          Dismukes</a> | Responsible NASA Official: <a href="/cgi-bin/comment.cgi?jsc-hsfwebma@mail.nasa.gov">Amiko Kauderer</a> | Updated: 06/08/2009<br />
        <a href="http://www.nasa.gov/about/highlights/HP_Privacy.html">Privacy Policy and Important Notices</a></font></td>
      </tr>
    </table>
    </body>
    </html>
